IRIDIUM 126             
1 42809U 17039G   24225.60336533  .00000819  00000+0  28532-3 0  9997
2 42809  86.3933 275.1134 0002376  93.3501 266.7966 14.34220408373406
IRIDIUM 124             
1 42810U 17039H   24225.71123448  .00000900  00000+0  26156-3 0  9991
2 42810  86.4501 211.8103 0002150  81.0588 279.0856 14.43296133377971
IRIDIUM 128             
1 42811U 17039J   24225.52433436  .00000156  00000+0  48726-4 0  9993
2 42811  86.3983 306.6861 0002239  88.3924 271.7529 14.34219464373425
IRIDIUM 121             
1 42812U 17039K   24225.55262366  .00000586  00000+0  20208-3 0  9990
2 42812  86.3936 275.1576 0002261  89.3997 270.7458 14.34220870373279
IRIDIUM 133             
1 42955U 17061A   24225.83511944  .00000809  00000+0  28163-3 0  9999
2 42955  86.3981 306.6571 0002445  94.6585 265.4890 14.34223121358263
IRIDIUM 100             
1 42956U 17061B   24225.47993589  .00001003  00000+0  35086-3 0  9998
2 42956  86.3982 306.7401 0002270  93.2352 266.9103 14.34222048358216
IRIDIUM 122             
1 42957U 17061C   24225.30868592  .00000156  00000+0  48573-4 0  9990
2 42957  86.3984 306.8109 0002361  90.7626 269.3840 14.34217844358192
IRIDIUM 129             
1 42958U 17061D   24225.75266658  .00000015  00000+0 -16726-5 0  9996
2 42958  86.3982 306.6846 0002517  93.9590 266.1893 14.34217660358273
